[{"OBJECT_NAME":"STARLINK-5541","OBJECT_ID":"2023-064AD","EPOCH":"2026-03-09T12:31:50.866464","MEAN_MOTION":14.98353783,"ECCENTRICITY":0.00033811,"INCLINATION":69.9994,"RA_OF_ASC_NODE":124.9029,"ARG_OF_PERICENTER":267.8014,"MEAN_ANOMALY":92.2758,"EPHEMERIS_TYPE":0,"CLASSIFICATION_TYPE":"U","NORAD_CAT_ID":56475,"ELEMENT_SET_NO":999,"REV_AT_EPOCH":15571,"BSTAR":0.00020202542,"MEAN_MOTION_DOT":2.32e-5,"MEAN_MOTION_DDOT":0},{"OBJECT_NAME":"BREEZE-M DEB","OBJECT_ID":"2006-006CZ","EPOCH":"2026-03-07T08:02:17.471616","MEAN_MOTION":5.32639231,"ECCENTRICITY":0.4985346,"INCLINATION":52.1102,"RA_OF_ASC_NODE":43.9827,"ARG_OF_PERICENTER":99.4691,"MEAN_ANOMALY":15.3627,"EPHEMERIS_TYPE":0,"CLASSIFICATION_TYPE":"U","NORAD_CAT_ID":38559,"ELEMENT_SET_NO":999,"REV_AT_EPOCH":421,"BSTAR":0.0035927,"MEAN_MOTION_DOT":1.258e-5,"MEAN_MOTION_DDOT":0}]
